*******************************************************************************
JPL/HORIZONS               1497 Tampere (1938 SB1)         2023-Sep-04 11:12:29
Rec #:    1497 (+COV) Soln.date: 2023-Aug-22_03:43:57   # obs: 4165 (1933-2023)
 
IAU76/J2000 helio. ecliptic osc. elements (au, days, deg., period=Julian yrs):
 
  EPOCH=  2457520.5 ! 2016-May-12.00 (TDB)         Residual RMS= .26057
   EC= .08144517621715601  QR= 2.658681799431179   TP= 2457790.9793686401
   OM= 300.2240961322996   W=  30.1603575588034    IN= 1.060657345364645
   A= 2.89441819975649     MA= 305.8627367586685   ADIST= 3.130154600081801
   PER= 4.92436            N= .200153023           ANGMOM= .029168687
   DAN= 2.68607            DDN= 3.09303            L= 330.3801889
   B= .5328747             MOID= 1.64712           TP= 2017-Feb-06.4793686401
 
Asteroid physical parameters (km, seconds, rotational period in hours):
   GM= n.a.                RAD= 7.7595             ROTPER= 3.64
   H= 11.53                G= .150                 B-V= n.a.
                           ALBEDO= .127            STYP= n.a.

ASTEROID comments: 
1: soln ref.= JPL#57, OCC=0
2: source=ORB
*******************************************************************************


*******************************************************************************
Ephemeris / API_USER Mon Sep  4 11:12:29 2023 Pasadena, USA      / Horizons
*******************************************************************************
Target body name: 1497 Tampere (1938 SB1)         {source: JPL#57}
Center body name: Solar System Barycenter (0)     {source: DE441}
Center-site name: BODY CENTER
*******************************************************************************
Start time      : A.D. 2023-Aug-12 00:00:00.0000 TDB
Stop  time      : A.D. 2023-Aug-13 00:00:00.0000 TDB
Step-size       : 2880 minutes
*******************************************************************************
Center geodetic : 0.0, 0.0, 0.0                   {E-lon(deg),Lat(deg),Alt(km)}
Center cylindric: 0.0, 0.0, 0.0                   {E-lon(deg),Dxy(km),Dz(km)}
Center radii    : (undefined)
Small perturbers: Yes                             {source: SB441-N16}
Output units    : KM-S
Calendar mode   : Mixed Julian/Gregorian
Output type     : GEOMETRIC cartesian states
Output format   : 2 (position and velocity)
Reference frame : Ecliptic of J2000.0
*******************************************************************************
Initial IAU76/J2000 heliocentric ecliptic osculating elements (au, days, deg.):
  EPOCH=  2457520.5 ! 2016-May-12.00 (TDB)         Residual RMS= .26057        
   EC= .08144517621715601  QR= 2.658681799431179   TP= 2457790.9793686401      
   OM= 300.2240961322996   W=  30.1603575588034    IN= 1.060657345364645       
  Equivalent ICRF heliocentric cartesian coordinates (au, au/d):
   X=-8.526022905867370E-02  Y=-2.529148661687213E+00  Z=-1.126127808867444E+00
  VX= 1.054696164628741E-02 VY= 3.024479482837518E-04 VZ= 3.191335878627263E-04
Asteroid physical parameters (km, seconds, rotational period in hours):        
   GM= n.a.                RAD= 7.7595             ROTPER= 3.64                
   H= 11.53                G= .150                 B-V= n.a.                   
                           ALBEDO= .127            STYP= n.a.                  
*******************************************************************************
JDTDB
   X     Y     Z
   VX    VY    VZ
*******************************************************************************
$$SOE
2460168.500000000 = A.D. 2023-Aug-12 00:00:00.0000 TDB 
 X =-3.312381586953118E+07 Y = 4.504486355090997E+08 Z = 3.672139766043454E+06
 VX=-1.674781558807101E+01 VY=-5.256623594975030E-03 VZ=-2.680201173593523E-01
$$EOE
*******************************************************************************
 
TIME

  Barycentric Dynamical Time ("TDB" or T_eph) output was requested. This
continuous coordinate time is equivalent to the relativistic proper time
of a clock at rest in a reference frame co-moving with the solar system
barycenter but outside the system's gravity well. It is the independent
variable in the solar system relativistic equations of motion.

  TDB runs at a uniform rate of one SI second per second and is independent
of irregularities in Earth's rotation.
 
CALENDAR SYSTEM

  Mixed calendar mode was active such that calendar dates after AD 1582-Oct-15
(if any) are in the modern Gregorian system. Dates prior to 1582-Oct-5 (if any)
are in the Julian calendar system, which is automatically extended for dates
prior to its adoption on 45-Jan-1 BC.  The Julian calendar is useful for
matching historical dates. The Gregorian calendar more accurately corresponds
to the Earth's orbital motion and seasons. A "Gregorian-only" calendar mode is
available if such physical events are the primary interest.

REFERENCE FRAME AND COORDINATES

  Ecliptic at the standard reference epoch

    Reference epoch: J2000.0
    X-Y plane: adopted Earth orbital plane at the reference epoch
               Note: IAU76 obliquity of 84381.448 arcseconds wrt ICRF X-Y plane
    X-axis   : ICRF
    Z-axis   : perpendicular to the X-Y plane in the directional (+ or -) sense
               of Earth's north pole at the reference epoch.

  Symbol meaning:

    JDTDB    Julian Day Number, Barycentric Dynamical Time
      X      X-component of position vector (km)
      Y      Y-component of position vector (km)
      Z      Z-component of position vector (km)
      VX     X-component of velocity vector (km/sec)                           
      VY     Y-component of velocity vector (km/sec)                           
      VZ     Z-component of velocity vector (km/sec)                           

ABERRATIONS AND CORRECTIONS

 Geometric state vectors have NO corrections or aberrations applied.

Computations by ...

    Solar System Dynamics Group, Horizons On-Line Ephemeris System
    4800 Oak Grove Drive, Jet Propulsion Laboratory
    Pasadena, CA  91109   USA

    General site: https://ssd.jpl.nasa.gov/
    Mailing list: https://ssd.jpl.nasa.gov/email_list.html
    System news : https://ssd.jpl.nasa.gov/horizons/news.html
    User Guide  : https://ssd.jpl.nasa.gov/horizons/manual.html
    Connect     : browser        https://ssd.jpl.nasa.gov/horizons/app.html#/x
                  API            https://ssd-api.jpl.nasa.gov/doc/horizons.html
                  command-line   telnet ssd.jpl.nasa.gov 6775
                  e-mail/batch   https://ssd.jpl.nasa.gov/ftp/ssd/hrzn_batch.txt
                  scripts        https://ssd.jpl.nasa.gov/ftp/ssd/SCRIPTS
    Author      : Jon.D.Giorgini@jpl.nasa.gov
*******************************************************************************
